QIANFAN-17              
1 60395U 24140S   25253.78259376  .00000080  00000+0  10476-3 0  9996
2 60395  88.9811 309.0534 0017170 112.8202 247.4764 13.50968985 55587
QIANFAN-18              
1 60396U 24140T   25253.68801627  .00000059  00000+0  72006-4 0  9992
2 60396  88.9803 308.6038 0016552  97.9552 262.3479 13.50970718 54964
QIANFAN-19              
1 61552U 24185A   25253.68344491  .00000398  00000+0  20173-3 0  9990
2 61552  88.9757  88.6154 0005101 234.5867 125.4844 14.14149078 56513
QIANFAN-20              
1 61553U 24185B   25253.71132337  .00000308  00000+0  17063-3 0  9994
2 61553  88.9755  88.8423 0003701 289.2863  70.7920 14.08699498 56392
QIANFAN-21              
1 61554U 24185C   25253.75685221  .00000462  00000+0  20116-3 0  9998
2 61554  88.9672  87.8811 0009100 314.7142  45.3307 14.22409745 56751
QIANFAN-22              
1 61555U 24185D   25253.82186546  .00000172  00000+0  13729-3 0  9993
2 61555  88.9742  89.4372 0004684 284.6240  75.4411 13.86252295 56065
QIANFAN-23              
1 61556U 24185E   25253.78972216  .00000469  00000+0  23026-3 0  9996
2 61556  88.9750  88.4560 0005796 252.1625 107.8931 14.16127475 56595
QIANFAN-24              
1 61557U 24185F   25253.69758212  .00000569  00000+0  24368-3 0  9996
2 61557  88.9731  88.0238 0007696 235.5755 124.4710 14.23613144 56785
